#dP2021  3 10  0  0  0.00000000      96 __u+U ITR00 FIT  IAC
## 2148 259200.00000000   900.00000000 59283 0.0000000000000
+  126   C01C02C03C04C05C06C07C08C09C10C11C12C13C14C16C19C20
+        C21C22C23C24C25C26C27C28C29C30C32C33C34C35C36C37C38
+        C39C40C41C42C43C44C45C46C60E01E02E03E04E05E07E08E09
+        E11E12E13E14E15E18E19E21E24E25E26E27E30E31E33G01G02
+        G03G04G05G06G07G08G09G10G11G12G13G14G15G16G17G18G19
+        G20G21G22G23G24G25G26G27G28G29G30G31G32J01J02J03J07
+        R01R02R03R04R05R06R07R08R09R10R11R12R13R14R15R16R17
+        R18R19R20R21R22R23R24  0  0  0  0  0  0  0  0  0  0
++        13 13 13 13 13 10  9 10  9 10  9  9 10  9  0  8  8
++         9  8  8  8  8  8  9  8  8  8  8  9  9  9  9 10 10
++        10 10 10  9  9  9 10  9 13  5  5  5  5  5  5  4  5
++         6  6  5  6  6  5  5  5  5  5  5  5  6  5  5  4  4
++         4  4  4  4  4  4  4  4  5  4  4  4  4  5  4  4  4
++         4  4  4  4  4  4  4  4  4  4  4  4  4  9  9  9 14
++         8  6  6  6  6 13  6  6  6 14  8  6  8  6  6  8  6
++         6  8  8  6  8 13  6  0  0  0  0  0  0  0  0  0  0
%c M  cc GPS ccc cccc cccc cccc cccc ccccc ccccc ccccc ccccc
%c cc cc ccc ccc cccc cccc cccc cccc ccccc ccccc ccccc ccccc
%f  0.0000000  0.000000000  0.00000000000  0.000000000000000
%f  0.0000000  0.000000000  0.00000000000  0.000000000000000
%i    0    0    0    0      0      0      0      0         0
%i    0    0    0    0      0      0      0      0         0
/* INFORMATION & ANALYSIS CENTER (IAC)            RAPID DATA
/* S/V CLOCKS ARE ALIGNED TO GNSS TIME                      
/* G:C1WC2W R:C1PC2P E:C1XC5X C:C2IC6I J:C1CC2S             
/* PCV:IGS14_2134 OL/AL:FES2004  NONE     YN ORB:CoN CLK:CoN
*  2021 03 10 18  0  0.00000000
PC01 -34336.919629  24426.604193   -282.473285   -668.040078
PC02   4345.590889  41960.009730   1250.071342    449.926678
PC03 -14873.622709  39462.070341    912.232083   -498.652663
PC04 -39612.696940  14414.728551    -20.167397    429.407770
PC05  21893.228068  36048.055123    938.920785   -914.645488
PC06 -15250.345614  38495.292817   9649.411018    164.386979
PC07 -11528.244743  24060.263119 -32343.778942     -3.842137
PC08 -25054.374645  23875.288225  23927.264568   -902.407710
PC09  -6708.592900  41484.180362  -5328.433992    678.102663
PC10   3305.226030  30733.021913 -28292.581011    -73.829719
PC11   9143.566439 -26368.828004   -873.722417   -876.804286
PC12  16658.241999 -16041.844206  15663.701866    854.846836
PC13  -9860.591134  25677.431382  31983.853261    174.599551
PC14    879.866827 -19763.566743 -19674.526112    177.993588
PC16      0.000000      0.000000      0.000000 999999.999999
PC19   7978.837330  23143.567553  13411.579653    756.686093
PC20  -8320.105642  14182.440084  22563.299876   -927.155992
PC21  20402.370445   3718.211930 -18642.365390   -877.855590
PC22  20100.831397  18950.253570  -3841.135133   -910.985008
PC23 -19467.846272  -9259.874103  17714.160457   -877.023795
PC24  20006.227757 -13758.090992  13767.677055   -779.324117
PC25   -754.160136 -16333.860822  22606.883566   -950.643335
PC26  27505.971277  -4410.045051  -1974.199862    937.333318
PC27 -17526.303733   6116.105813 -20860.239640    496.398783
PC28 -10656.404697 -14199.440995 -21526.772258   -100.064583
PC29  -1419.658532  26178.030423   9568.089054    363.142827
PC30 -13453.417275  22981.507135  -8392.142205    451.293484
PC32 -20463.046839  -3556.539778  18660.415260   -909.478141
PC33  -8074.335222 -23105.407932 -13409.538219   -948.880805
PC34  13196.611858 -23317.819419   7743.462269   -722.080714
PC35  11012.586090  14175.565816  21373.150446   -381.042840
PC36      4.070655  16385.670468 -22570.024804   -743.711203
PC37 -27570.651273   3193.441855   2796.378687   -874.409338
PC38 -21718.674420  26185.717784  24864.350945    134.968219
PC39  -9225.171598  40830.259078   5663.758290     29.237750
PC40    615.580735  27610.791322 -31809.003389    139.561501
PC41 -20107.618042 -19007.311729   3647.131880   -931.519014
PC42   8883.973752 -13686.284524 -22593.564555   -928.667041
PC43   1830.122076 -26291.810260  -9134.403327   -633.439992
PC44  17386.965464  -6387.878195  20854.640800     78.976925
PC45  19557.317385   9073.678008 -17733.319271    383.145608
PC46 -19202.409032  14074.586813 -14526.047394    369.134966
PC60   7287.101189  41532.295483   -145.315059     -0.486831
PE01  26841.777663   -969.049942  12449.444303  -1062.712966
PE02 -26771.537291   1070.043066 -12563.836944    204.061858
PE03 -16432.082497   4730.494006  24161.739827   -407.398416
PE04   6440.676351 -23427.437275 -16899.957718   -726.133725
PE05 -16918.991986 -17008.490770  17342.282335   -298.137448
PE07   7527.928614  28618.864132   -466.893291   -511.033871
PE08  -6023.460782  23634.513252  16767.506907   6035.208847
PE09  -7787.890117 -28557.928536    636.089478   5739.263927
PE11    482.142589 -20288.244150 -21541.264156   6223.063398
PE12  17629.042630 -22971.671430  -6073.613085   5316.964471
PE13   -882.866358  20470.448163  21375.848718    413.341131
PE14 -20370.753895   1916.242795 -24705.252931  -1357.164298
PE15 -17543.198793  23048.860522   6133.844601    825.350337
PE18  13960.565014 -11718.421945  16391.801295  -1483.995726
PE19  16904.776599  -2110.410972 -24201.023740    223.482690
PE21  26706.408218  11513.786718  -5544.704008   -652.854933
PE24 -10197.379671 -17915.003519  21214.806241   -785.595628
PE25 -26616.056925 -11608.492071   5717.121806   -528.153748
PE26  16871.825484   5376.340322  23727.513356   2057.449917
PE27  11066.448625  17805.511247 -20903.992592     13.281713
PE30 -11916.681324  13208.721893 -23666.630940   3117.796101
PE31  11000.260005 -13591.536763  23887.529185   -479.041249
PE33  23859.971988 -12037.777296  12722.950882   -466.403102
PG01   7729.632582 -18488.651764 -17496.216302    744.277765
PG02 -22137.724894  14413.571380  -2251.363799   -584.795903
PG03  -3292.860699 -17281.347519 -20009.185181   -104.367899
PG04   1913.656574 -26294.795999  -2976.109346   -185.358988
PG05 -15304.869432   8297.727988  19961.477660    -35.851459
PG06 -22371.599206   3106.462347 -13958.158579      0.211810
PG07  -7705.465204 -13532.404225  21842.531351     85.480943
PG08   5940.278184 -23471.567251  10558.554831    -13.213166
PG09  -7033.688844 -24309.289930   7962.585050   -329.914206
PG10  23995.764082  11658.138070  -1134.625263    -78.185145
PG11   7753.742117 -24675.360891  -7285.511291     -2.630229
PG12  -1746.772773  16014.492217 -21397.824545    -12.055465
PG13 -12886.506734  16087.444957  16545.784306    106.266558
PG14 -23005.764109 -13288.613445   -219.556325     99.824384
PG15  -3513.436168  24182.318055   9598.467226   -164.050649
PG16  17804.885956  -4016.529728  19219.141846   -291.979069
PG17 -13014.462589 -11153.468777 -19860.805825    407.435483
PG18  10380.541316  11233.400070  21713.354383    350.146450
PG19 -14775.968009  -2096.770923 -22256.583623    -28.124864
PG20  19006.171671  15225.470813  10871.353054    524.312550
PG21  14510.437087 -19305.149123  -9793.502717    102.050773
PG22   6205.263010 -14425.295862 -21219.862312   -663.280299
PG23  18759.472466  16407.725369   9221.508345    117.797518
PG24 -11525.608989  20138.101230 -12803.340817      1.254075
PG25  12915.221123  18345.348754 -14689.497767     96.186293
PG26  23838.313476   1807.343608  11799.928802     56.168728
PG27  12339.898842 -13364.485182  19053.604236    -91.454863
PG28 -22866.921493 -12971.879381  -2390.695901    604.132544
PG29   4907.291068  24613.417256   8586.906988   -309.406006
PG30 -18678.171102  -4662.880641  18440.299640   -396.463548
PG31  23759.925170  -4729.014628 -11492.831522   -104.790847
PG32  14647.152885   8974.827946 -20200.025480     20.900349
PJ01 -24799.930440  23505.616567  29651.507684   -353.909361
PJ02 -31570.842834  14700.339134 -19261.971889      3.130536
PJ03 -23502.118812  31818.513249  -9955.237830     -1.572304
PJ07 -25388.442768  33669.866425      6.175853     -0.034563
PR01   7578.192104  -8624.879314 -22775.660367     76.194665
PR02  -6768.916809 -21977.778561 -10929.937607    470.214960
PR03 -15031.354358 -19552.146457   6454.841392     32.168111
PR04 -14536.563005  -6264.802280  20029.555468     77.312193
PR05  -6012.283562  10568.314721  22439.939751     67.926113
PR06   7923.528338  22069.594946  10063.726017    194.154685
PR07  15140.935445  19336.692333  -6938.719444    -42.530298
PR08  14608.246100   6232.067612 -19911.121290    -57.834847
PR09    491.408735  11258.883473 -22870.461545    -17.787291
PR10  17692.269126   7637.518744 -16768.344367    -66.989435
PR11  25497.860410   -468.893589   -310.550585      2.429451
PR12  17844.809416  -8025.783944  16399.969561    211.469089
PR13     44.827672 -10991.103001  22996.385824    -51.821434
PR14 -18379.906984  -7510.160434  16024.598054     61.869286
PR15 -25503.779873    262.001236    -70.871369    105.001687
PR16 -16745.852417   8862.217703 -17035.407420    -12.311456
PR17  -5226.977690 -11246.763753 -22283.816642    406.835404
PR18 -13829.852492   5257.110130 -20778.954647     69.336115
PR19 -15690.930929  18020.237396  -8931.468459   -135.178290
PR20  -7683.155922  21761.535271  10931.591644    -44.923484
PR21   5911.638060  10150.215495  22642.869537   -193.396118
PR22  14107.272243  -6141.551231  20300.646530   -101.905170
PR23  13537.086067 -21540.246946   1785.296166    371.187181
PR24   6739.501132 -21776.326423 -11433.880862     34.497316
EOF
